NORAD_CAT_ID,OBJECT_NAME,OBJECT_TYPE,EPOCH,MEAN_MOTION,ECCENTRICITY,INCLINATION,RA_OF_ASC_NODE,ARG_OF_PERICENTER,MEAN_ANOMALY,BSTAR,MEAN_MOTION_DOT,MEAN_MOTION_DDOT,TLE_LINE0,TLE_LINE1,TLE_LINE2,SEMIMAJOR_AXIS,PERIOD,APOGEE,PERIGEE,DECAYED
52310.0,STARLINK-3688,PAYLOAD,2023-10-23 22:00:00,15.08841646,9.49e-05,53.217,24.7702,93.7599,62.8625,-0.00069302,-0.000113,0.0,0 STARLINK-3688,1 52310U 22041BB  23296.91667824 -.00011300  00000-0 -69302-3 0  9995,2 52310  53.2170  24.7702 0000949  93.7599  62.8625 15.08841646  5712,6917.875,95.437,540.397,539.084,0.0
52310.0,STARLINK-3688,PAYLOAD,2023-10-24 06:00:02,15.08841158,0.0001017,53.2173,23.2732,102.6687,65.6036,0.0019317,0.0003059,0.0,0 STARLINK-3688,1 52310U 22041BB  23297.25002315  .00030590  00000-0  19317-2 0  9991,2 52310  53.2173  23.2732 0001017 102.6687  65.6036 15.08841158 84900,6917.877,95.437,540.445,539.038,0.0
52310.0,STARLINK-3688,PAYLOAD,2023-10-24 14:00:01,15.08861587,9.96e-05,53.2171,21.7786,81.5482,98.2723,-0.0032305,-0.00051364,0.0,0 STARLINK-3688,1 52310U 22041BB  23297.58334491 -.00051364  00000-0 -32305-2 0  9996,2 52310  53.2171  21.7786 0000996  81.5482  98.2723 15.08861587  5819,6917.814,95.436,540.368,538.99,0.0
52310.0,STARLINK-3688,PAYLOAD,2023-10-24 16:00:01,15.08830243,9.85e-05,53.217,21.4046,76.9335,195.8602,0.00018539,2.663e-05,0.0,0 STARLINK-3688,1 52310U 22041BB  23297.66668981  .00002663  00000-0  18539-3 0  9999,2 52310  53.2170  21.4046 0000985  76.9335 195.8602 15.08830243  5823,6917.91,95.438,540.457,539.094,0.0
52310.0,STARLINK-3688,PAYLOAD,2023-10-25 13:03:11,15.08839431,0.0001616,53.2193,17.4657,98.613,261.5045,-7.781e-05,-1.526e-05,0.0,0 STARLINK-3688,1 52310U 22041BB  23298.54388392 -.00001526  00000-0 -77810-4 0  9999,2 52310  53.2193  17.4657 0001616  98.6130 261.5045 15.08839431 85106,6917.882,95.438,540.865,538.629,0.0
52310.0,STARLINK-3688,PAYLOAD,2023-10-26 11:18:35,15.08849743,0.0001327,53.2196,13.3044,75.338,284.7759,9.3234e-05,1.197e-05,0.0,0 STARLINK-3688,1 52310U 22041BB  23299.47124040  .00001197  00000-0  93234-4 0  9990,2 52310  53.2196  13.3044 0001327  75.3380 284.7759 15.08849743 85243,6917.851,95.437,540.634,538.798,0.0
52310.0,STARLINK-3688,PAYLOAD,2023-10-26 22:26:16,15.08853645,0.000128,53.2185,11.2223,79.0487,281.0649,0.00022332,3.269e-05,0.0,0 STARLINK-3688,1 52310U 22041BB  23299.93491595  .00003269  00000-0  22332-3 0  9995,2 52310  53.2185  11.2223 0001280  79.0487 281.0649 15.08853645 85316,6917.839,95.437,540.589,538.818,0.0
52310.0,STARLINK-3688,PAYLOAD,2023-10-27 11:09:21,15.08860469,0.0001207,53.2176,8.8418,87.5443,272.5687,0.00032479,4.888e-05,0.0,0 STARLINK-3688,1 52310U 22041BB  23300.46482998  .00004888  00000-0  32479-3 0  9994,2 52310  53.2176   8.8418 0001207  87.5443 272.5687 15.08860469 85396,6917.818,95.436,540.518,538.848,0.0
52310.0,STARLINK-3688,PAYLOAD,2023-10-27 22:17:03,15.08848718,0.0001456,53.2183,6.7624,78.6072,281.5084,0.00011637,1.565e-05,0.0,0 STARLINK-3688,1 52310U 22041BB  23300.92851439  .00001565  00000-0  11637-3 0  9997,2 52310  53.2183   6.7624 0001456  78.6072 281.5084 15.08848718 85467,6917.854,95.437,540.726,538.712,0.0
52310.0,STARLINK-3688,PAYLOAD,2023-10-27 23:52:26,15.0884753,0.0001342,53.2173,6.4646,90.6018,269.5127,9.8967e-05,1.288e-05,0.0,0 STARLINK-3688,1 52310U 22041BB  23300.99475437  .00001288  00000-0  98967-4 0  9998,2 52310  53.2173   6.4646 0001342  90.6018 269.5127 15.08847530 85471,6917.857,95.437,540.651,538.794,0.0
52310.0,STARLINK-3688,PAYLOAD,2023-10-28 11:00:09,15.08826669,0.0001303,53.2175,4.3823,93.1542,266.9599,-0.00026052,-4.43e-05,0.0,0 STARLINK-3688,1 52310U 22041BB  23301.45844400 -.00004430  00000-0 -26052-3 0  9999,2 52310  53.2175   4.3823 0001303  93.1542 266.9599 15.08826669 85546,6917.921,95.438,540.688,538.885,0.0
52310.0,STARLINK-3688,PAYLOAD,2023-10-29 10:50:55,15.08867167,0.0001354,53.2183,359.9215,96.3426,263.7721,0.00086587,0.00013529,0.0,0 STARLINK-3688,1 52310U 22041BB  23302.45203399  .00013529  00000-0  86587-3 0  9992,2 52310  53.2183 359.9215 0001354  96.3426 263.7721 15.08867167 85697,6917.797,95.436,540.599,538.726,0.0
52310.0,STARLINK-3688,PAYLOAD,2023-10-30 04:20:10,15.08841556,0.0001176,53.2169,356.6494,113.1334,246.9783,0.0002099,3.054e-05,0.0,0 STARLINK-3688,1 52310U 22041BB  23303.18068084  .00003054  00000-0  20990-3 0  9991,2 52310  53.2169 356.6494 0001176 113.1334 246.9783 15.08841556 85800,6917.876,95.437,540.554,538.927,0.0
52310.0,STARLINK-3688,PAYLOAD,2023-10-30 20:14:02,15.0883715,0.0001346,53.2177,353.6775,109.1687,250.9451,-3.1709e-05,-7.92e-06,0.0,0 STARLINK-3688,1 52310U 22041BB  23303.84308204 -.00000792  00000-0 -31709-4 0  9994,2 52310  53.2177 353.6775 0001346 109.1687 250.9451 15.08837150 85906,6917.889,95.438,540.685,538.823,0.0
52310.0,STARLINK-3688,PAYLOAD,2023-10-31 10:32:30,15.08830475,0.0001568,53.2185,351.0035,111.7176,248.3983,-0.00017345,-3.047e-05,0.0,0 STARLINK-3688,1 52310U 22041BB  23304.43924683 -.00003047  00000-0 -17345-3 0  9990,2 52310  53.2185 351.0035 0001568 111.7176 248.3983 15.08830475 85997,6917.91,95.438,540.859,538.69,0.0
52310.0,STARLINK-3688,PAYLOAD,2023-10-31 20:04:49,15.08841911,0.0001481,53.2196,349.2183,104.4211,255.6945,-2.6642e-05,-7.12e-06,0.0,0 STARLINK-3688,1 52310U 22041BB  23304.83668488 -.00000712  00000-0 -26642-4 0  9999,2 52310  53.2196 349.2183 0001481 104.4211 255.6945 15.08841911 86059,6917.875,95.437,540.764,538.715,0.0
52310.0,STARLINK-3688,PAYLOAD,2023-11-01 02:26:22,15.08836856,0.0001563,53.2201,348.0283,109.7785,250.3376,0.00026453,3.924e-05,0.0,0 STARLINK-3688,1 52310U 22041BB  23305.10165016  .00003924  00000-0  26453-3 0  9994,2 52310  53.2201 348.0283 0001563 109.7785 250.3376 15.08836856 86095,6917.89,95.438,540.836,538.674,0.0
52310.0,STARLINK-3688,PAYLOAD,2023-11-01 10:23:17,15.08848105,0.000148,53.2186,346.5412,101.6726,258.4432,0.00040542,6.172e-05,0.0,0 STARLINK-3688,1 52310U 22041BB  23305.43284690  .00006172  00000-0  40542-3 0  9993,2 52310  53.2186 346.5412 0001480 101.6726 258.4432 15.08848105 86146,6917.856,95.437,540.744,538.697,0.0
52310.0,STARLINK-3688,PAYLOAD,2023-11-01 19:55:36,15.08850549,0.0001493,53.2176,344.7556,86.3158,273.8004,0.00034732,5.246e-05,0.0,0 STARLINK-3688,1 52310U 22041BB  23305.83028550  .00005246  00000-0  34732-3 0  9993,2 52310  53.2176 344.7556 0001493  86.3158 273.8004 15.08850549 86204,6917.848,95.437,540.746,538.68,0.0
52310.0,STARLINK-3688,PAYLOAD,2023-11-02 10:14:04,15.08848967,0.000144,53.2175,342.0803,87.6319,272.4838,0.00023356,3.432e-05,0.0,0 STARLINK-3688,1 52310U 22041BB  23306.42644517  .00003432  00000-0  23356-3 0  9991,2 52310  53.2175 342.0803 0001440  87.6319 272.4838 15.08848967 86294,6917.853,95.437,540.714,538.722,0.0
52310.0,STARLINK-3688,PAYLOAD,2023-11-02 19:46:23,15.08845256,0.0001509,53.2175,340.2956,89.4076,270.7089,0.00010636,1.405e-05,0.0,0 STARLINK-3688,1 52310U 22041BB  23306.82388525  .00001405  00000-0  10636-3 0  9994,2 52310  53.2175 340.2956 0001509  89.4076 270.7089 15.08845256 86353,6917.864,95.437,540.773,538.685,0.0
52310.0,STARLINK-3688,PAYLOAD,2023-11-03 02:07:56,15.08842932,0.0001597,53.2173,339.1072,88.5837,271.5338,4.6072e-05,4.45e-06,0.0,0 STARLINK-3688,1 52310U 22041BB  23307.08884656  .00000445  00000-0  46072-4 0  9996,2 52310  53.2173 339.1072 0001597  88.5837 271.5338 15.08842932 86397,6917.871,95.437,540.841,538.632,0.0
52310.0,STARLINK-3688,PAYLOAD,2023-11-03 08:29:28,15.08844269,0.0001489,53.2171,337.9168,92.5753,267.5409,8.2265e-05,1.022e-05,0.0,0 STARLINK-3688,1 52310U 22041BB  23307.35380567  .00001022  00000-0  82265-4 0  9994,2 52310  53.2171 337.9168 0001489  92.5753 267.5409 15.08844269 86433,6917.867,95.437,540.762,538.702,0.0
52310.0,STARLINK-3688,PAYLOAD,2023-11-03 19:37:10,15.08838673,0.0001473,53.2162,335.8346,94.0777,266.0384,1.2552e-05,-8.8e-07,0.0,0 STARLINK-3688,1 52310U 22041BB  23307.81748804 -.00000088  00000-0  12552-4 0  9991,2 52310  53.2162 335.8346 0001473  94.0777 266.0384 15.08838673 86500,6917.884,95.438,540.768,538.73,0.0
52310.0,STARLINK-3688,PAYLOAD,2023-11-04 05:09:29,15.08840285,0.0001524,53.2166,334.0492,96.2339,263.8827,0.00012312,1.672e-05,0.0,0 STARLINK-3688,1 52310U 22041BB  23308.21492919  .00001672  00000-0  12312-3 0  9991,2 52310  53.2166 334.0492 0001524  96.2339 263.8827 15.08840285 86567,6917.88,95.438,540.799,538.69,0.0
52310.0,STARLINK-3688,PAYLOAD,2023-11-04 11:31:02,15.0884281,0.0001572,53.2174,332.8593,95.4492,264.668,0.0001702,2.422e-05,0.0,0 STARLINK-3688,1 52310U 22041BB  23308.47988830  .00002422  00000-0  17020-3 0  9996,2 52310  53.2174 332.8593 0001572  95.4492 264.6680 15.08842810 86605,6917.872,95.437,540.824,538.649,0.0
52310.0,STARLINK-3688,PAYLOAD,2023-11-05 11:21:49,15.08856743,0.0001675,53.2173,328.3976,100.4889,259.6292,0.0004163,6.347e-05,0.0,0 STARLINK-3688,1 52310U 22041BB  23309.47348419  .00006347  00000-0  41630-3 0  9994,2 52310  53.2173 328.3976 0001675 100.4889 259.6292 15.08856743 86759,6917.829,95.436,540.853,538.535,0.0
52310.0,STARLINK-3688,PAYLOAD,2023-11-06 01:40:17,15.0885057,0.0001882,53.2178,325.7211,103.7421,256.378,0.00031591,4.745e-05,0.0,0 STARLINK-3688,1 52310U 22041BB  23310.06964661  .00004745  00000-0  31591-3 0  9999,2 52310  53.2178 325.7211 0001882 103.7421 256.3780 15.08850570 86843,6917.848,95.437,541.015,538.411,0.0
52310.0,STARLINK-3688,PAYLOAD,2023-11-06 08:01:49,15.08862649,0.0001614,53.2184,324.5363,84.2399,275.8777,0.00055402,8.546e-05,0.0,0 STARLINK-3688,1 52310U 22041BB  23310.33460166  .00008546  00000-0  55402-3 0  9990,2 52310  53.2184 324.5363 0001614  84.2399 275.8777 15.08862649 86881,6917.811,95.436,540.793,538.56,0.0
52310.0,STARLINK-3688,PAYLOAD,2023-11-06 17:34:09,15.0882957,0.0001693,53.2171,322.7485,78.9457,281.1726,-0.00021243,-3.666e-05,0.0,0 STARLINK-3688,1 52310U 22041BB  23310.73205142 -.00003666  00000-0 -21243-3 0  9991,2 52310  53.2171 322.7485 0001693  78.9457 281.1726 15.08829570 86941,6917.912,95.438,540.948,538.606,0.0
